SL-16 R/B               
1 22285U 92093B   25308.86429150  .00000105  00000+0  78107-4 0  9997
2 22285  71.0202 266.3007 0003324 169.0637 191.0559 14.15418268695494
COSMOS 2228             
1 22286U 92094A   25308.84765532  .00001959  00000+0  16985-3 0  9997
2 22286  82.5200 356.7853 0018133   7.5263 352.6227 14.96469518757385
SL-16 R/B               
1 22566U 93016B   25308.46820685 -.00000177  00000+0 -66521-4 0  9997
2 22566  71.0049 118.1818 0009473 167.1025 193.0342 14.15278516684456
COSMOS 2242             
1 22626U 93024A   25308.64392279  .00002411  00000+0  21290-3 0  9990
2 22626  82.5224  26.2450 0016571  11.1812 348.9775 14.95868043761696
SL-16 R/B               
1 22803U 93059B   25308.61769723 -.00000144  00000+0 -47389-4 0  9995
2 22803  70.9890 274.8729 0015710  34.0812 326.1317 14.17202102661816
ARIANE 40 R/B           
1 22830U 93061H   25308.62839662  .00000275  00000+0  11703-3 0  9992
2 22830  98.5123  14.8437 0009651 296.8021  63.2176 14.32764154676192
COSMOS 2278             
1 23087U 94023A   25308.76855895  .00000081  00000+0  66939-4 0  9994
2 23087  71.0520  76.4480 0010383 228.3235 131.7000 14.14331581627149
SL-16 R/B               
1 23088U 94023B   25308.80151650 -.00000024  00000+0  12394-4 0  9992
2 23088  71.0008 333.1602 0001852 176.5930 183.5206 14.14993014628427
SL-16 R/B               
1 23343U 94074B   25308.54211347  .00000553  00000+0  81136-4 0  9999
2 23343  97.7254 339.3556 0005106 268.8899 247.1606 14.79221144668749
SL-16 R/B               
1 23405U 94077B   25308.54916898  .00000125  00000+0  88392-4 0  9990
2 23405  70.9816 255.7538 0003540 315.0609  45.0227 14.15538819598522
ARIANE 40+ R/B          
1 23561U 95021B   25308.66801804  .00000378  00000+0  13483-3 0  9994
2 23561  98.4697  16.7091 0007403 148.9977   3.4782 14.39648815601252
SL-16 R/B               
1 23705U 95058B   25308.62062144  .00000250  00000+0  15229-3 0  9995
2 23705  71.0207  82.8312 0014378 304.7670  55.2099 14.15473733550154
