CCSDS_OMM_VERS = 2.0
CREATION_DATE  = 
ORIGINATOR     = 

OBJECT_NAME    = SL-16 R/B
OBJECT_ID      = 1992-093B
CENTER_NAME    = EARTH
REF_FRAME      = TEME
TIME_SYSTEM    = UTC
MEAN_ELEMENT_THEORY = SGP/SGP4

EPOCH          = 2025-11-04T20:44:34.785600
MEAN_MOTION    = 14.15418268
ECCENTRICITY   = .0003324
INCLINATION    = 71.0202
RA_OF_ASC_NODE = 266.3007
ARG_OF_PERICENTER = 169.0637
MEAN_ANOMALY   = 191.0559

EPHEMERIS_TYPE = 0
CLASSIFICATION_TYPE = U
NORAD_CAT_ID   = 22285
ELEMENT_SET_NO = 999
REV_AT_EPOCH   = 69549
BSTAR          = .78107E-4
MEAN_MOTION_DOT = .105E-5
MEAN_MOTION_DDOT = 0

CCSDS_OMM_VERS = 2.0
CREATION_DATE  = 
ORIGINATOR     = 

OBJECT_NAME    = COSMOS 2228
OBJECT_ID      = 1992-094A
CENTER_NAME    = EARTH
REF_FRAME      = TEME
TIME_SYSTEM    = UTC
MEAN_ELEMENT_THEORY = SGP/SGP4

EPOCH          = 2025-11-04T20:20:37.419648
MEAN_MOTION    = 14.96469518
ECCENTRICITY   = .0018133
INCLINATION    = 82.5200
RA_OF_ASC_NODE = 356.7853
ARG_OF_PERICENTER = 7.5263
MEAN_ANOMALY   = 352.6227

EPHEMERIS_TYPE = 0
CLASSIFICATION_TYPE = U
NORAD_CAT_ID   = 22286
ELEMENT_SET_NO = 999
REV_AT_EPOCH   = 75738
BSTAR          = .16985E-3
MEAN_MOTION_DOT = .1959E-4
MEAN_MOTION_DDOT = 0

CCSDS_OMM_VERS = 2.0
CREATION_DATE  = 
ORIGINATOR     = 

OBJECT_NAME    = SL-16 R/B
OBJECT_ID      = 1993-016B
CENTER_NAME    = EARTH
REF_FRAME      = TEME
TIME_SYSTEM    = UTC
MEAN_ELEMENT_THEORY = SGP/SGP4

EPOCH          = 2025-11-04T11:14:13.071840
MEAN_MOTION    = 14.15278516
ECCENTRICITY   = .00094739
INCLINATION    = 71.0049
RA_OF_ASC_NODE = 118.1818
ARG_OF_PERICENTER = 167.1025
MEAN_ANOMALY   = 193.0342

EPHEMERIS_TYPE = 0
CLASSIFICATION_TYPE = U
NORAD_CAT_ID   = 22566
ELEMENT_SET_NO = 999
REV_AT_EPOCH   = 68445
BSTAR          = -.66521355E-4
MEAN_MOTION_DOT = -.177E-5
MEAN_MOTION_DDOT = 0

CCSDS_OMM_VERS = 2.0
CREATION_DATE  = 
ORIGINATOR     = 

OBJECT_NAME    = COSMOS 2242
OBJECT_ID      = 1993-024A
CENTER_NAME    = EARTH
REF_FRAME      = TEME
TIME_SYSTEM    = UTC
MEAN_ELEMENT_THEORY = SGP/SGP4

EPOCH          = 2025-11-04T15:27:14.929056
MEAN_MOTION    = 14.95868043
ECCENTRICITY   = .0016571
INCLINATION    = 82.5224
RA_OF_ASC_NODE = 26.2450
ARG_OF_PERICENTER = 11.1812
MEAN_ANOMALY   = 348.9775

EPHEMERIS_TYPE = 0
CLASSIFICATION_TYPE = U
NORAD_CAT_ID   = 22626
ELEMENT_SET_NO = 999
REV_AT_EPOCH   = 76169
BSTAR          = .2129E-3
MEAN_MOTION_DOT = .2411E-4
MEAN_MOTION_DDOT = 0

CCSDS_OMM_VERS = 2.0
CREATION_DATE  = 
ORIGINATOR     = 

OBJECT_NAME    = SL-16 R/B
OBJECT_ID      = 1993-059B
CENTER_NAME    = EARTH
REF_FRAME      = TEME
TIME_SYSTEM    = UTC
MEAN_ELEMENT_THEORY = SGP/SGP4

EPOCH          = 2025-11-04T14:49:29.040672
MEAN_MOTION    = 14.17202102
ECCENTRICITY   = .00157108
INCLINATION    = 70.9890
RA_OF_ASC_NODE = 274.8729
ARG_OF_PERICENTER = 34.0812
MEAN_ANOMALY   = 326.1317

EPHEMERIS_TYPE = 0
CLASSIFICATION_TYPE = U
NORAD_CAT_ID   = 22803
ELEMENT_SET_NO = 999
REV_AT_EPOCH   = 66181
BSTAR          = -.47388665E-4
MEAN_MOTION_DOT = -.144E-5
MEAN_MOTION_DDOT = 0

CCSDS_OMM_VERS = 2.0
CREATION_DATE  = 
ORIGINATOR     = 

OBJECT_NAME    = ARIANE 40 R/B
OBJECT_ID      = 1993-061H
CENTER_NAME    = EARTH
REF_FRAME      = TEME
TIME_SYSTEM    = UTC
MEAN_ELEMENT_THEORY = SGP/SGP4

EPOCH          = 2025-11-04T15:04:53.467968
MEAN_MOTION    = 14.32764154
ECCENTRICITY   = .00096516
INCLINATION    = 98.5123
RA_OF_ASC_NODE = 14.8437
ARG_OF_PERICENTER = 296.8021
MEAN_ANOMALY   = 63.2176

EPHEMERIS_TYPE = 0
CLASSIFICATION_TYPE = U
NORAD_CAT_ID   = 22830
ELEMENT_SET_NO = 999
REV_AT_EPOCH   = 67619
BSTAR          = .11702892E-3
MEAN_MOTION_DOT = .275E-5
MEAN_MOTION_DDOT = 0

CCSDS_OMM_VERS = 2.0
CREATION_DATE  = 
ORIGINATOR     = 

OBJECT_NAME    = COSMOS 2278
OBJECT_ID      = 1994-023A
CENTER_NAME    = EARTH
REF_FRAME      = TEME
TIME_SYSTEM    = UTC
MEAN_ELEMENT_THEORY = SGP/SGP4

EPOCH          = 2025-11-04T18:26:43.493280
MEAN_MOTION    = 14.14331581
ECCENTRICITY   = .0010383
INCLINATION    = 71.0520
RA_OF_ASC_NODE = 76.4480
ARG_OF_PERICENTER = 228.3235
MEAN_ANOMALY   = 131.7000

EPHEMERIS_TYPE = 0
CLASSIFICATION_TYPE = U
NORAD_CAT_ID   = 23087
ELEMENT_SET_NO = 999
REV_AT_EPOCH   = 62714
BSTAR          = .66939E-4
MEAN_MOTION_DOT = .81E-6
MEAN_MOTION_DDOT = 0

CCSDS_OMM_VERS = 2.0
CREATION_DATE  = 
ORIGINATOR     = 

OBJECT_NAME    = SL-16 R/B
OBJECT_ID      = 1994-023B
CENTER_NAME    = EARTH
REF_FRAME      = TEME
TIME_SYSTEM    = UTC
MEAN_ELEMENT_THEORY = SGP/SGP4

EPOCH          = 2025-11-04T19:14:11.025600
MEAN_MOTION    = 14.14993014
ECCENTRICITY   = .0001852
INCLINATION    = 71.0008
RA_OF_ASC_NODE = 333.1602
ARG_OF_PERICENTER = 176.5930
MEAN_ANOMALY   = 183.5206

EPHEMERIS_TYPE = 0
CLASSIFICATION_TYPE = U
NORAD_CAT_ID   = 23088
ELEMENT_SET_NO = 999
REV_AT_EPOCH   = 62842
BSTAR          = .12394E-4
MEAN_MOTION_DOT = -.24E-6
MEAN_MOTION_DDOT = 0

CCSDS_OMM_VERS = 2.0
CREATION_DATE  = 
ORIGINATOR     = 

OBJECT_NAME    = SL-16 R/B
OBJECT_ID      = 1994-074B
CENTER_NAME    = EARTH
REF_FRAME      = TEME
TIME_SYSTEM    = UTC
MEAN_ELEMENT_THEORY = SGP/SGP4

EPOCH          = 2025-11-04T13:00:38.603808
MEAN_MOTION    = 14.79221144
ECCENTRICITY   = .00051064
INCLINATION    = 97.7254
RA_OF_ASC_NODE = 339.3556
ARG_OF_PERICENTER = 268.8899
MEAN_ANOMALY   = 247.1606

EPHEMERIS_TYPE = 0
CLASSIFICATION_TYPE = U
NORAD_CAT_ID   = 23343
ELEMENT_SET_NO = 999
REV_AT_EPOCH   = 66874
BSTAR          = .81135945E-4
MEAN_MOTION_DOT = .553E-5
MEAN_MOTION_DDOT = 0

CCSDS_OMM_VERS = 2.0
CREATION_DATE  = 
ORIGINATOR     = 

OBJECT_NAME    = SL-16 R/B
OBJECT_ID      = 1994-077B
CENTER_NAME    = EARTH
REF_FRAME      = TEME
TIME_SYSTEM    = UTC
MEAN_ELEMENT_THEORY = SGP/SGP4

EPOCH          = 2025-11-04T13:10:48.199872
MEAN_MOTION    = 14.15538819
ECCENTRICITY   = .00035401
INCLINATION    = 70.9816
RA_OF_ASC_NODE = 255.7538
ARG_OF_PERICENTER = 315.0609
MEAN_ANOMALY   = 45.0227

EPHEMERIS_TYPE = 0
CLASSIFICATION_TYPE = U
NORAD_CAT_ID   = 23405
ELEMENT_SET_NO = 999
REV_AT_EPOCH   = 59852
BSTAR          = .88392153E-4
MEAN_MOTION_DOT = .125E-5
MEAN_MOTION_DDOT = 0

CCSDS_OMM_VERS = 2.0
CREATION_DATE  = 
ORIGINATOR     = 

OBJECT_NAME    = ARIANE 40+ R/B
OBJECT_ID      = 1995-021B
CENTER_NAME    = EARTH
REF_FRAME      = TEME
TIME_SYSTEM    = UTC
MEAN_ELEMENT_THEORY = SGP/SGP4

EPOCH          = 2025-11-04T16:01:56.758656
MEAN_MOTION    = 14.39648815
ECCENTRICITY   = .00074036
INCLINATION    = 98.4697
RA_OF_ASC_NODE = 16.7091
ARG_OF_PERICENTER = 148.9977
MEAN_ANOMALY   = 3.4782

EPHEMERIS_TYPE = 0
CLASSIFICATION_TYPE = U
NORAD_CAT_ID   = 23561
ELEMENT_SET_NO = 999
REV_AT_EPOCH   = 60125
BSTAR          = .13483243E-3
MEAN_MOTION_DOT = .378E-5
MEAN_MOTION_DDOT = 0

CCSDS_OMM_VERS = 2.0
CREATION_DATE  = 
ORIGINATOR     = 

OBJECT_NAME    = SL-16 R/B
OBJECT_ID      = 1995-058B
CENTER_NAME    = EARTH
REF_FRAME      = TEME
TIME_SYSTEM    = UTC
MEAN_ELEMENT_THEORY = SGP/SGP4

EPOCH          = 2025-11-04T14:53:41.692416
MEAN_MOTION    = 14.15473733
ECCENTRICITY   = .00143787
INCLINATION    = 71.0207
RA_OF_ASC_NODE = 82.8312
ARG_OF_PERICENTER = 304.7670
MEAN_ANOMALY   = 55.2099

EPHEMERIS_TYPE = 0
CLASSIFICATION_TYPE = U
NORAD_CAT_ID   = 23705
ELEMENT_SET_NO = 999
REV_AT_EPOCH   = 55015
BSTAR          = .15229111E-3
MEAN_MOTION_DOT = .25E-5
MEAN_MOTION_DDOT = 0

